[
    {
        "Altitude(m)": 556565.8578418358,
        "Argument of Periapsis(deg)": 0.026491964442854003,
        "Eccentricity": 0.0,
        "Inclination(deg)": 53.0,
        "Latitude(deg)": 38.175808107792285,
        "Longitude(deg)": 70.71366995687083,
        "Mean Anomaly(deg)": 129.45737147031036,
        "RAAN(deg)": 29.960573474112064,
        "Satellite Name": "Starlink Shell 1 137",
        "Satellite Number": 137,
        "Semi-Major Axis(m)": 6931778.249405717,
        "Time(s)": 760
    },
    {
        "Altitude(m)": 556482.488602178,
        "Argument of Periapsis(deg)": 0.02684054292236524,
        "Eccentricity": 0.0,
        "Inclination(deg)": 53.0,
        "Latitude(deg)": 37.768510876762605,
        "Longitude(deg)": 71.27698908981341,
        "Mean Anomaly(deg)": 130.08420267386708,
        "RAAN(deg)": 29.960054704034594,
        "Satellite Name": "Starlink Shell 1 137",
        "Satellite Number": 137,
        "Semi-Major Axis(m)": 6931778.249405717,
        "Time(s)": 770
    },
    {
        "Altitude(m)": 556399.1896871743,
        "Argument of Periapsis(deg)": 0.027189121401876473,
        "Eccentricity": 0.0,
        "Inclination(deg)": 53.0,
        "Latitude(deg)": 37.3581170190211,
        "Longitude(deg)": 71.83369388467625,
        "Mean Anomaly(deg)": 130.71103387742377,
        "RAAN(deg)": 29.959535933957124,
        "Satellite Name": "Starlink Shell 1 137",
        "Satellite Number": 137,
        "Semi-Major Axis(m)": 6931778.249405717,
        "Time(s)": 780
    },
    {
        "Altitude(m)": 556316.0163654095,
        "Argument of Periapsis(deg)": 0.02753769988138771,
        "Eccentricity": 0.0,
        "Inclination(deg)": 53.0,
        "Latitude(deg)": 36.9447039733722,
        "Longitude(deg)": 72.38390511561535,
        "Mean Anomaly(deg)": 131.3378650809805,
        "RAAN(deg)": 29.959017163879647,
        "Satellite Name": "Starlink Shell 1 137",
        "Satellite Number": 137,
        "Semi-Major Axis(m)": 6931778.249405717,
        "Time(s)": 790
    },
    {
        "Altitude(m)": 556233.0240511288,
        "Argument of Periapsis(deg)": 0.02788627836089895,
        "Eccentricity": 0.0,
        "Inclination(deg)": 53.0,
        "Latitude(deg)": 36.528347475034614,
        "Longitude(deg)": 72.92774292466831,
        "Mean Anomaly(deg)": 131.9646962845372,
        "RAAN(deg)": 29.958498393802177,
        "Satellite Name": "Starlink Shell 1 137",
        "Satellite Number": 137,
        "Semi-Major Axis(m)": 6931778.249405717,
        "Time(s)": 800
    },
    {
        "Altitude(m)": 556150.2682758328,
        "Argument of Periapsis(deg)": 0.02823485684041019,
        "Eccentricity": 0.0,
        "Inclination(deg)": 53.0,
        "Latitude(deg)": 36.10912158295393,
        "Longitude(deg)": 73.46532718615727,
        "Mean Anomaly(deg)": 132.59152748809393,
        "RAAN(deg)": 29.957979623724707,
        "Satellite Name": "Starlink Shell 1 137",
        "Satellite Number": 137,
        "Semi-Major Axis(m)": 6931778.249405717,
        "Time(s)": 810
    },
    {
        "Altitude(m)": 556067.8046597616,
        "Argument of Periapsis(deg)": 0.028583435319921423,
        "Eccentricity": 0.0,
        "Inclination(deg)": 53.0,
        "Latitude(deg)": 35.687098708320676,
        "Longitude(deg)": 73.99677788272899,
        "Mean Anomaly(deg)": 133.21835869165068,
        "RAAN(deg)": 29.957460853647227,
        "Satellite Name": "Starlink Shell 1 137",
        "Satellite Number": 137,
        "Semi-Major Axis(m)": 6931778.249405717,
        "Time(s)": 820
    },
    {
        "Altitude(m)": 555985.6888832841,
        "Argument of Periapsis(deg)": 0.028932013799432665,
        "Eccentricity": 0.0,
        "Inclination(deg)": 53.0,
        "Latitude(deg)": 35.262349644119006,
        "Longitude(deg)": 74.52221397955837,
        "Mean Anomaly(deg)": 133.84518989520737,
        "RAAN(deg)": 29.956942083569754,
        "Satellite Name": "Starlink Shell 1 137",
        "Satellite Number": 137,
        "Semi-Major Axis(m)": 6931778.249405717,
        "Time(s)": 830
    },
    {
        "Altitude(m)": 555903.9766582375,
        "Argument of Periapsis(deg)": 0.029280592278943897,
        "Eccentricity": 0.0,
        "Inclination(deg)": 53.0,
        "Latitude(deg)": 34.834943595546775,
        "Longitude(deg)": 75.04175382187536,
        "Mean Anomaly(deg)": 134.47202109876406,
        "RAAN(deg)": 29.956423313492284,
        "Satellite Name": "Starlink Shell 1 137",
        "Satellite Number": 137,
        "Semi-Major Axis(m)": 6931778.249405717,
        "Time(s)": 840
    },
    {
        "Altitude(m)": 555822.7236991723,
        "Argument of Periapsis(deg)": 0.029629170758455132,
        "Eccentricity": 0.0,
        "Inclination(deg)": 53.0,
        "Latitude(deg)": 34.40494821115721,
        "Longitude(deg)": 75.55551554236509,
        "Mean Anomaly(deg)": 135.09885230232075,
        "RAAN(deg)": 29.95590454341481,
        "Satellite Name": "Starlink Shell 1 137",
        "Satellite Number": 137,
        "Semi-Major Axis(m)": 6931778.249405717,
        "Time(s)": 850
    },
    {
        "Altitude(m)": 555741.9856945558,
        "Argument of Periapsis(deg)": 0.02997774923796637,
        "Eccentricity": 0.0,
        "Inclination(deg)": 53.0,
        "Latitude(deg)": 33.97242961458445,
        "Longitude(deg)": 76.0636157969095,
        "Mean Anomaly(deg)": 135.7256835058775,
        "RAAN(deg)": 29.955385773337337,
        "Satellite Name": "Starlink Shell 1 137",
        "Satellite Number": 137,
        "Semi-Major Axis(m)": 6931778.249405717,
        "Time(s)": 860
    },
    {
        "Altitude(m)": 555661.8182779764,
        "Argument of Periapsis(deg)": 0.030326327717477602,
        "Eccentricity": 0.0,
        "Inclination(deg)": 53.0,
        "Latitude(deg)": 33.537452436729026,
        "Longitude(deg)": 76.56617103055896,
        "Mean Anomaly(deg)": 136.3525147094342,
        "RAAN(deg)": 29.954867003259864,
        "Satellite Name": "Starlink Shell 1 137",
        "Satellite Number": 137,
        "Semi-Major Axis(m)": 6931778.249405717,
        "Time(s)": 870
    },
    {
        "Altitude(m)": 555582.2769992653,
        "Argument of Periapsis(deg)": 0.030674906196988847,
        "Eccentricity": 0.0,
        "Inclination(deg)": 53.0,
        "Latitude(deg)": 33.100079848286086,
        "Longitude(deg)": 77.06329623029077,
        "Mean Anomaly(deg)": 136.9793459129909,
        "RAAN(deg)": 29.95434823318239,
        "Satellite Name": "Starlink Shell 1 137",
        "Satellite Number": 137,
        "Semi-Major Axis(m)": 6931778.249405717,
        "Time(s)": 880
    },
    {
        "Altitude(m)": 555503.4172956935,
        "Argument of Periapsis(deg)": 0.031023484676500086,
        "Eccentricity": 0.0,
        "Inclination(deg)": 53.0,
        "Latitude(deg)": 32.66037359251265,
        "Longitude(deg)": 77.55510536648192,
        "Mean Anomaly(deg)": 137.60617711654766,
        "RAAN(deg)": 29.95382946310492,
        "Satellite Name": "Starlink Shell 1 137",
        "Satellite Number": 137,
        "Semi-Major Axis(m)": 6931778.249405717,
        "Time(s)": 890
    },
    {
        "Altitude(m)": 555425.2944630947,
        "Argument of Periapsis(deg)": 0.03137206315601132,
        "Eccentricity": 0.0,
        "Inclination(deg)": 53.0,
        "Latitude(deg)": 32.21839401813764,
        "Longitude(deg)": 78.04171184163681,
        "Mean Anomaly(deg)": 138.23300832010437,
        "RAAN(deg)": 29.953310693027447,
        "Satellite Name": "Starlink Shell 1 137",
        "Satellite Number": 137,
        "Semi-Major Axis(m)": 6931778.249405717,
        "Time(s)": 900
    },
    {
        "Altitude(m)": 555347.9636270715,
        "Argument of Periapsis(deg)": 0.03172064163552255,
        "Eccentricity": 0.0,
        "Inclination(deg)": 53.0,
        "Latitude(deg)": 31.77420011232671,
        "Longitude(deg)": 78.52322743302967,
        "Mean Anomaly(deg)": 138.8598395236611,
        "RAAN(deg)": 29.952791922949974,
        "Satellite Name": "Starlink Shell 1 137",
        "Satellite Number": 137,
        "Semi-Major Axis(m)": 6931778.249405717,
        "Time(s)": 910
    },
    {
        "Altitude(m)": 555271.4797142259,
        "Argument of Periapsis(deg)": 0.0320692201150338,
        "Eccentricity": 0.0,
        "Inclination(deg)": 53.0,
        "Latitude(deg)": 31.327849533624835,
        "Longitude(deg)": 78.9997627545669,
        "Mean Anomaly(deg)": 139.48667072721778,
        "RAAN(deg)": 29.952273152872504,
        "Satellite Name": "Starlink Shell 1 137",
        "Satellite Number": 137,
        "Semi-Major Axis(m)": 6931778.249405717,
        "Time(s)": 920
    },
    {
        "Altitude(m)": 555195.8974234223,
        "Argument of Periapsis(deg)": 0.032417798594545036,
        "Eccentricity": 0.0,
        "Inclination(deg)": 53.0,
        "Latitude(deg)": 30.879398644804816,
        "Longitude(deg)": 79.4714277245694,
        "Mean Anomaly(deg)": 140.1135019307745,
        "RAAN(deg)": 29.951754382795023,
        "Satellite Name": "Starlink Shell 1 137",
        "Satellite Number": 137,
        "Semi-Major Axis(m)": 6931778.249405717,
        "Time(s)": 930
    },
    {
        "Altitude(m)": 555121.2711971322,
        "Argument of Periapsis(deg)": 0.03276637707405627,
        "Eccentricity": 0.0,
        "Inclination(deg)": 53.0,
        "Latitude(deg)": 30.42890254555772,
        "Longitude(deg)": 79.93833052619438,
        "Mean Anomaly(deg)": 140.74033313433122,
        "RAAN(deg)": 29.951235612717554,
        "Satellite Name": "Starlink Shell 1 137",
        "Satellite Number": 137,
        "Semi-Major Axis(m)": 6931778.249405717,
        "Time(s)": 940
    }
]